{
  "type": "FeatureCollection",
  "features": [
    {
      "type": "Feature",
      "properties": {
        "norad_id": 67040,
        "name": "STARLINK-35786",
        "group": "last-30-days",
        "lat": -5.064741606320945,
        "lon": -35.89770971538241,
        "alt_km": 301.9339673814229,
        "timestamp": "2025-12-19T20:42:58.816105+00:00",
        "meta_object_name": "STARLINK-35786",
        "meta_object_id": "2025-294L",
        "meta_epoch": "2025-12-19T06:00:02.000160",
        "meta_mean_motion": 15.91780295,
        "meta_eccentricity": 0.00017092,
        "meta_inclination": 42.9998,
        "meta_ra_of_asc_node": 142.4536,
        "meta_arg_of_pericenter": 256.5046,
        "meta_mean_anomaly": 14.7081,
        "meta_ephemeris_type": 0,
        "meta_classification_type": "U",
        "meta_norad_cat_id": 67040,
        "meta_element_set_no": 999,
        "meta_rev_at_epoch": 130,
        "meta_bstar": -0.0040998862,
        "meta_mean_motion_dot": -0.01391097,
        "meta_mean_motion_ddot": 0.00055146404,
        "tle_line1": "1 67040U 25294L   25353.25002315 -.01391097  55146-3 -40999-2 0  9994",
        "tle_line2": "2 67040  42.9998 142.4536 0001709 256.5046  14.7081 15.91780295  1302"
      },
      "geometry": {
        "type": "Point",
        "coordinates": [
          -35.89770971538241,
          -5.064741606320945
        ]
      }
    },
    {
      "type": "Feature",
      "properties": {
        "norad_id": 67041,
        "name": "STARLINK-35765",
        "group": "last-30-days",
        "lat": -7.587840007253052,
        "lon": -33.14606832897205,
        "alt_km": 301.81313093656627,
        "timestamp": "2025-12-19T20:42:58.816117+00:00",
        "meta_object_name": "STARLINK-35765",
        "meta_object_id": "2025-294M",
        "meta_epoch": "2025-12-19T06:00:02.000160",
        "meta_mean_motion": 15.91918823,
        "meta_eccentricity": 0.0001972,
        "meta_inclination": 42.9998,
        "meta_ra_of_asc_node": 142.4445,
        "meta_arg_of_pericenter": 256.0809,
        "meta_mean_anomaly": 18.6122,
        "meta_ephemeris_type": 0,
        "meta_classification_type": "U",
        "meta_norad_cat_id": 67041,
        "meta_element_set_no": 999,
        "meta_rev_at_epoch": 130,
        "meta_bstar": -0.0041983288,
        "meta_mean_motion_dot": -0.01434346,
        "meta_mean_motion_ddot": 0.00058407643,
        "tle_line1": "1 67041U 25294M   25353.25002315 -.01434346  58408-3 -41983-2 0  9998",
        "tle_line2": "2 67041  42.9998 142.4445 0001972 256.0809  18.6122 15.91918823  1305"
      },
      "geometry": {
        "type": "Point",
        "coordinates": [
          -33.14606832897205,
          -7.587840007253052
        ]
      }
    },
    {
      "type": "Feature",
      "properties": {
        "norad_id": 67042,
        "name": "STARLINK-35773",
        "group": "last-30-days",
        "lat": -8.959166108982991,
        "lon": -31.629679615106937,
        "alt_km": 301.949255012466,
        "timestamp": "2025-12-19T20:42:58.816127+00:00",
        "meta_object_name": "STARLINK-35773",
        "meta_object_id": "2025-294N",
        "meta_epoch": "2025-12-19T06:00:02.000160",
        "meta_mean_motion": 15.91998205,
        "meta_eccentricity": 0.0001717,
        "meta_inclination": 43,
        "meta_ra_of_asc_node": 142.4397,
        "meta_arg_of_pericenter": 258.5483,
        "meta_mean_anomaly": 18.0535,
        "meta_ephemeris_type": 0,
        "meta_classification_type": "U",
        "meta_norad_cat_id": 67042,
        "meta_element_set_no": 999,
        "meta_rev_at_epoch": 130,
        "meta_bstar": -0.0042948283,
        "meta_mean_motion_dot": -0.01472857,
        "meta_mean_motion_ddot": 0.00061363318,
        "tle_line1": "1 67042U 25294N   25353.25002315 -.01472857  61363-3 -42948-2 0  9994",
        "tle_line2": "2 67042  43.0000 142.4397 0001717 258.5483  18.0535 15.91998205  1304"
      },
      "geometry": {
        "type": "Point",
        "coordinates": [
          -31.629679615106937,
          -8.959166108982991
        ]
      }
    },
    {
      "type": "Feature",
      "properties": {
        "norad_id": 67043,
        "name": "STARLINK-35901",
        "group": "last-30-days",
        "lat": -10.301933357430212,
        "lon": -30.12667729577764,
        "alt_km": 301.822888734795,
        "timestamp": "2025-12-19T20:42:58.816139+00:00",
        "meta_object_name": "STARLINK-35901",
        "meta_object_id": "2025-294P",
        "meta_epoch": "2025-12-19T06:00:02.000160",
        "meta_mean_motion": 15.9207153,
        "meta_eccentricity": 0.00019568,
        "meta_inclination": 42.9998,
        "meta_ra_of_asc_node": 142.4351,
        "meta_arg_of_pericenter": 256.7743,
        "meta_mean_anomaly": 21.7105,
        "meta_ephemeris_type": 0,
        "meta_classification_type": "U",
        "meta_norad_cat_id": 67043,
        "meta_element_set_no": 999,
        "meta_rev_at_epoch": 135,
        "meta_bstar": -0.0043678591,
        "meta_mean_motion_dot": -0.01503325,
        "meta_mean_motion_ddot": 0.00063758458,
        "tle_line1": "1 67043U 25294P   25353.25002315 -.01503325  63758-3 -43679-2 0  9992",
        "tle_line2": "2 67043  42.9998 142.4351 0001956 256.7743  21.7105 15.92071530  1356"
      },
      "geometry": {
        "type": "Point",
        "coordinates": [
          -30.12667729577764,
          -10.301933357430212
        ]
      }
    },
    {
      "type": "Feature",
      "properties": {
        "norad_id": 67044,
        "name": "STARLINK-35884",
        "group": "last-30-days",
        "lat": -11.591517904874745,
        "lon": -28.663940006357247,
        "alt_km": 301.86769217708843,
        "timestamp": "2025-12-19T20:42:58.816149+00:00",
        "meta_object_name": "STARLINK-35884",
        "meta_object_id": "2025-294Q",
        "meta_epoch": "2025-12-19T06:00:02.000160",
        "meta_mean_motion": 15.92147226,
        "meta_eccentricity": 0.00017253,
        "meta_inclination": 43,
        "meta_ra_of_asc_node": 142.4304,
        "meta_arg_of_pericenter": 256.0214,
        "meta_mean_anomaly": 24.2768,
        "meta_ephemeris_type": 0,
        "meta_classification_type": "U",
        "meta_norad_cat_id": 67044,
        "meta_element_set_no": 999,
        "meta_rev_at_epoch": 130,
        "meta_bstar": -0.0044628057,
        "meta_mean_motion_dot": -0.01541537,
        "meta_mean_motion_ddot": 0.00066815809,
        "tle_line1": "1 67044U 25294Q   25353.25002315 -.01541537  66816-3 -44628-2 0  9993",
        "tle_line2": "2 67044  43.0000 142.4304 0001725 256.0214  24.2768 15.92147226  1305"
      },
      "geometry": {
        "type": "Point",
        "coordinates": [
          -28.663940006357247,
          -11.591517904874745
        ]
      }
    },
    {
      "type": "Feature",
      "properties": {
        "norad_id": 67045,
        "name": "STARLINK-35891",
        "group": "last-30-days",
        "lat": -13.168327866470184,
        "lon": -26.84474729487069,
        "alt_km": 301.9115983319334,
        "timestamp": "2025-12-19T20:42:58.816160+00:00",
        "meta_object_name": "STARLINK-35891",
        "meta_object_id": "2025-294R",
        "meta_epoch": "2025-12-19T06:00:02.000160",
        "meta_mean_motion": 15.92229562,
        "meta_eccentricity": 0.00017373,
        "meta_inclination": 43,
        "meta_ra_of_asc_node": 142.4246,
        "meta_arg_of_pericenter": 257.2934,
        "meta_mean_anomaly": 25.2601,
        "meta_ephemeris_type": 0,
        "meta_classification_type": "U",
        "meta_norad_cat_id": 67045,
        "meta_element_set_no": 999,
        "meta_rev_at_epoch": 130,
        "meta_bstar": -0.004571099,
        "meta_mean_motion_dot": -0.01585192,
        "meta_mean_motion_ddot": 0.00070391921,
        "tle_line1": "1 67045U 25294R   25353.25002315 -.01585192  70392-3 -45711-2 0  9997",
        "tle_line2": "2 67045  43.0000 142.4246 0001737 257.2934  25.2601 15.92229562  1307"
      },
      "geometry": {
        "type": "Point",
        "coordinates": [
          -26.84474729487069,
          -13.168327866470184
        ]
      }
    },
    {
      "type": "Feature",
      "properties": {
        "norad_id": 67046,
        "name": "STARLINK-35721",
        "group": "last-30-days",
        "lat": -14.558202968190285,
        "lon": -25.208794456111356,
        "alt_km": 301.9082489295042,
        "timestamp": "2025-12-19T20:42:58.816169+00:00",
        "meta_object_name": "STARLINK-35721",
        "meta_object_id": "2025-294S",
        "meta_epoch": "2025-12-19T06:00:02.000160",
        "meta_mean_motion": 15.92298615,
        "meta_eccentricity": 0.00017212,
        "meta_inclination": 43.0001,
        "meta_ra_of_asc_node": 142.4197,
        "meta_arg_of_pericenter": 257.6186,
        "meta_mean_anomaly": 26.9324,
        "meta_ephemeris_type": 0,
        "meta_classification_type": "U",
        "meta_norad_cat_id": 67046,
        "meta_element_set_no": 999,
        "meta_rev_at_epoch": 130,
        "meta_bstar": -0.004634652,
        "meta_mean_motion_dot": -0.01612681,
        "meta_mean_motion_ddot": 0.00072703377,
        "tle_line1": "1 67046U 25294S   25353.25002315 -.01612681  72703-3 -46347-2 0  9996",
        "tle_line2": "2 67046  43.0001 142.4197 0001721 257.6186  26.9324 15.92298615  1305"
      },
      "geometry": {
        "type": "Point",
        "coordinates": [
          -25.208794456111356,
          -14.558202968190285
        ]
      }
    }
  ]
}